MESON-1                 
1 59131U 24043AK  26068.90019075  .00008544  00000+0  29748-3 0  9998
2 59131  97.5469 205.2839 0009545 227.1432 132.9007 15.29893494111890
STARLINK-31560          
1 59361U 24060P   26068.57596352 -.00000506  00000+0 -88704-5 0  9994
2 59361  43.0032 260.6500 0001084 262.1715  97.9014 15.27564558110048
